[{"OBJECT_NAME":"QIANFAN-86","OBJECT_ID":"2025-046P","EPOCH":"2026-03-04T20:10:41.052288","MEAN_MOTION":13.51001288,"ECCENTRICITY":0.0009269,"INCLINATION":88.9764,"RA_OF_ASC_NODE":311.3061,"ARG_OF_PERICENTER":254.9619,"MEAN_ANOMALY":105.0506,"EPHEMERIS_TYPE":0,"CLASSIFICATION_TYPE":"U","NORAD_CAT_ID":63172,"ELEMENT_SET_NO":999,"REV_AT_EPOCH":5863,"BSTAR":0.00027999,"MEAN_MOTION_DOT":1.93e-6,"MEAN_MOTION_DDOT":0},{"OBJECT_NAME":"QIANFAN-87","OBJECT_ID":"2025-046Q","EPOCH":"2026-03-04T19:29:19.968288","MEAN_MOTION":13.51009652,"ECCENTRICITY":0.000995,"INCLINATION":88.976,"RA_OF_ASC_NODE":311.4174,"ARG_OF_PERICENTER":249.3155,"MEAN_ANOMALY":110.693,"EPHEMERIS_TYPE":0,"CLASSIFICATION_TYPE":"U","NORAD_CAT_ID":63173,"ELEMENT_SET_NO":999,"REV_AT_EPOCH":5856,"BSTAR":0.00029798,"MEAN_MOTION_DOT":2.04e-6,"MEAN_MOTION_DDOT":0},{"OBJECT_NAME":"QIANFAN-88","OBJECT_ID":"2025-046R","EPOCH":"2026-03-04T19:52:49.738080","MEAN_MOTION":13.50997964,"ECCENTRICITY":0.0010351,"INCLINATION":88.9763,"RA_OF_ASC_NODE":311.3725,"ARG_OF_PERICENTER":258.948,"MEAN_ANOMALY":101.0507,"EPHEMERIS_TYPE":0,"CLASSIFICATION_TYPE":"U","NORAD_CAT_ID":63174,"ELEMENT_SET_NO":999,"REV_AT_EPOCH":5859,"BSTAR":0.00027329,"MEAN_MOTION_DOT":1.88e-6,"MEAN_MOTION_DDOT":0},{"OBJECT_NAME":"QIANFAN-89","OBJECT_ID":"2025-046S","EPOCH":"2026-03-04T18:59:44.356704","MEAN_MOTION":13.51008477,"ECCENTRICITY":0.0014825,"INCLINATION":88.9763,"RA_OF_ASC_NODE":311.5654,"ARG_OF_PERICENTER":248.1148,"MEAN_ANOMALY":111.8427,"EPHEMERIS_TYPE":0,"CLASSIFICATION_TYPE":"U","NORAD_CAT_ID":63175,"ELEMENT_SET_NO":999,"REV_AT_EPOCH":5848,"BSTAR":0.00029459,"MEAN_MOTION_DOT":2.02e-6,"MEAN_MOTION_DDOT":0},{"OBJECT_NAME":"QIANFAN-90","OBJECT_ID":"2025-046T","EPOCH":"2026-03-04T19:41:15.724032","MEAN_MOTION":13.51008385,"ECCENTRICITY":0.0011783,"INCLINATION":88.9763,"RA_OF_ASC_NODE":311.5348,"ARG_OF_PERICENTER":246.024,"MEAN_ANOMALY":113.9677,"EPHEMERIS_TYPE":0,"CLASSIFICATION_TYPE":"U","NORAD_CAT_ID":63176,"ELEMENT_SET_NO":999,"REV_AT_EPOCH":5850,"BSTAR":0.00031207,"MEAN_MOTION_DOT":2.14e-6,"MEAN_MOTION_DDOT":0},{"OBJECT_NAME":"QIANFAN-91","OBJECT_ID":"2025-233A","EPOCH":"2026-03-04T18:41:27.888864","MEAN_MOTION":13.51004503,"ECCENTRICITY":0.000192,"INCLINATION":88.9928,"RA_OF_ASC_NODE":53.7466,"ARG_OF_PERICENTER":92.7052,"MEAN_ANOMALY":267.4319,"EPHEMERIS_TYPE":0,"CLASSIFICATION_TYPE":"U","NORAD_CAT_ID":66033,"ELEMENT_SET_NO":999,"REV_AT_EPOCH":1908,"BSTAR":5.1437e-5,"MEAN_MOTION_DOT":4.5e-7,"MEAN_MOTION_DDOT":0},{"OBJECT_NAME":"QIANFAN-92","OBJECT_ID":"2025-233B","EPOCH":"2026-03-04T18:53:13.560000","MEAN_MOTION":13.51005898,"ECCENTRICITY":0.0001934,"INCLINATION":88.9912,"RA_OF_ASC_NODE":53.7345,"ARG_OF_PERICENTER":86.0484,"MEAN_ANOMALY":274.0888,"EPHEMERIS_TYPE":0,"CLASSIFICATION_TYPE":"U","NORAD_CAT_ID":66034,"ELEMENT_SET_NO":999,"REV_AT_EPOCH":1908,"BSTAR":2.4947e-5,"MEAN_MOTION_DOT":2.8e-7,"MEAN_MOTION_DDOT":0},{"OBJECT_NAME":"QIANFAN-93","OBJECT_ID":"2025-233C","EPOCH":"2026-03-04T20:51:43.880832","MEAN_MOTION":13.51004849,"ECCENTRICITY":0.0001906,"INCLINATION":88.9939,"RA_OF_ASC_NODE":53.7497,"ARG_OF_PERICENTER":90.7738,"MEAN_ANOMALY":269.3632,"EPHEMERIS_TYPE":0,"CLASSIFICATION_TYPE":"U","NORAD_CAT_ID":66035,"ELEMENT_SET_NO":999,"REV_AT_EPOCH":1909,"BSTAR":1.4629e-5,"MEAN_MOTION_DOT":2.1e-7,"MEAN_MOTION_DDOT":0},{"OBJECT_NAME":"QIANFAN-94","OBJECT_ID":"2025-233D","EPOCH":"2026-03-04T18:47:03.945984","MEAN_MOTION":13.50991858,"ECCENTRICITY":0.0002038,"INCLINATION":88.9936,"RA_OF_ASC_NODE":53.6654,"ARG_OF_PERICENTER":88.3545,"MEAN_ANOMALY":271.784,"EPHEMERIS_TYPE":0,"CLASSIFICATION_TYPE":"U","NORAD_CAT_ID":66036,"ELEMENT_SET_NO":999,"REV_AT_EPOCH":1913,"BSTAR":2.7682e-5,"MEAN_MOTION_DOT":3.0e-7,"MEAN_MOTION_DDOT":0},{"OBJECT_NAME":"QIANFAN-95","OBJECT_ID":"2025-233E","EPOCH":"2026-03-04T18:58:58.429920","MEAN_MOTION":13.51015318,"ECCENTRICITY":0.0002046,"INCLINATION":88.9934,"RA_OF_ASC_NODE":53.2108,"ARG_OF_PERICENTER":93.6584,"MEAN_ANOMALY":266.4802,"EPHEMERIS_TYPE":0,"CLASSIFICATION_TYPE":"U","NORAD_CAT_ID":66037,"ELEMENT_SET_NO":999,"REV_AT_EPOCH":1938,"BSTAR":7.4441e-5,"MEAN_MOTION_DOT":6.0e-7,"MEAN_MOTION_DDOT":0},{"OBJECT_NAME":"QIANFAN-96","OBJECT_ID":"2025-233F","EPOCH":"2026-03-04T19:34:46.248384","MEAN_MOTION":13.51004648,"ECCENTRICITY":0.0001933,"INCLINATION":88.9931,"RA_OF_ASC_NODE":53.7543,"ARG_OF_PERICENTER":94.6355,"MEAN_ANOMALY":265.5016,"EPHEMERIS_TYPE":0,"CLASSIFICATION_TYPE":"U","NORAD_CAT_ID":66038,"ELEMENT_SET_NO":999,"REV_AT_EPOCH":1908,"BSTAR":3.8654e-5,"MEAN_MOTION_DOT":3.7e-7,"MEAN_MOTION_DDOT":0},{"OBJECT_NAME":"QIANFAN-97","OBJECT_ID":"2025-233G","EPOCH":"2026-03-04T19:11:02.998464","MEAN_MOTION":13.5100406,"ECCENTRICITY":0.0001937,"INCLINATION":88.9934,"RA_OF_ASC_NODE":53.7366,"ARG_OF_PERICENTER":92.15,"MEAN_ANOMALY":267.9873,"EPHEMERIS_TYPE":0,"CLASSIFICATION_TYPE":"U","NORAD_CAT_ID":66039,"ELEMENT_SET_NO":999,"REV_AT_EPOCH":1909,"BSTAR":2.6035e-5,"MEAN_MOTION_DOT":2.9e-7,"MEAN_MOTION_DDOT":0},{"OBJECT_NAME":"QIANFAN-98","OBJECT_ID":"2025-233H","EPOCH":"2026-03-04T19:22:49.505952","MEAN_MOTION":13.51004489,"ECCENTRICITY":0.0002462,"INCLINATION":88.9923,"RA_OF_ASC_NODE":53.478,"ARG_OF_PERICENTER":85.6887,"MEAN_ANOMALY":274.4546,"EPHEMERIS_TYPE":0,"CLASSIFICATION_TYPE":"U","NORAD_CAT_ID":66040,"ELEMENT_SET_NO":999,"REV_AT_EPOCH":1923,"BSTAR":3.612e-5,"MEAN_MOTION_DOT":3.5e-7,"MEAN_MOTION_DDOT":0},{"OBJECT_NAME":"QIANFAN-99","OBJECT_ID":"2025-233J","EPOCH":"2026-03-04T19:28:49.105344","MEAN_MOTION":13.51004787,"ECCENTRICITY":0.0002326,"INCLINATION":88.9934,"RA_OF_ASC_NODE":53.7387,"ARG_OF_PERICENTER":89.4726,"MEAN_ANOMALY":270.6692,"EPHEMERIS_TYPE":0,"CLASSIFICATION_TYPE":"U","NORAD_CAT_ID":66041,"ELEMENT_SET_NO":999,"REV_AT_EPOCH":1909,"BSTAR":3.8994e-5,"MEAN_MOTION_DOT":3.7e-7,"MEAN_MOTION_DDOT":0},{"OBJECT_NAME":"QIANFAN-100","OBJECT_ID":"2025-233K","EPOCH":"2026-03-04T19:16:55.686720","MEAN_MOTION":13.51005651,"ECCENTRICITY":0.0001909,"INCLINATION":88.9945,"RA_OF_ASC_NODE":53.6549,"ARG_OF_PERICENTER":91.4222,"MEAN_ANOMALY":268.7147,"EPHEMERIS_TYPE":0,"CLASSIFICATION_TYPE":"U","NORAD_CAT_ID":66042,"ELEMENT_SET_NO":999,"REV_AT_EPOCH":1914,"BSTAR":7.3986e-5,"MEAN_MOTION_DOT":6.0e-7,"MEAN_MOTION_DDOT":0},{"OBJECT_NAME":"QIANFAN-101","OBJECT_ID":"2025-233L","EPOCH":"2026-03-04T19:06:33.548832","MEAN_MOTION":14.2673339,"ECCENTRICITY":0.0016808,"INCLINATION":88.9935,"RA_OF_ASC_NODE":52.549,"ARG_OF_PERICENTER":121.383,"MEAN_ANOMALY":238.901,"EPHEMERIS_TYPE":0,"CLASSIFICATION_TYPE":"U","NORAD_CAT_ID":66043,"ELEMENT_SET_NO":999,"REV_AT_EPOCH":1974,"BSTAR":0.00028609,"MEAN_MOTION_DOT":7.08e-6,"MEAN_MOTION_DDOT":0},{"OBJECT_NAME":"QIANFAN-102","OBJECT_ID":"2025-233M","EPOCH":"2026-03-04T19:46:21.281088","MEAN_MOTION":13.50992381,"ECCENTRICITY":0.0002091,"INCLINATION":88.9932,"RA_OF_ASC_NODE":53.6495,"ARG_OF_PERICENTER":88.8514,"MEAN_ANOMALY":271.2877,"EPHEMERIS_TYPE":0,"CLASSIFICATION_TYPE":"U","NORAD_CAT_ID":66044,"ELEMENT_SET_NO":999,"REV_AT_EPOCH":1914,"BSTAR":1.5755e-5,"MEAN_MOTION_DOT":2.2e-7,"MEAN_MOTION_DDOT":0}]
