QIANFAN-86              
1 63172U 25046P   26063.84075292  .00000193  00000+0  27999-3 0  9991
2 63172  88.9764 311.3061 0009269 254.9619 105.0506 13.51001288 58638
QIANFAN-87              
1 63173U 25046Q   26063.81203667  .00000204  00000+0  29798-3 0  9990
2 63173  88.9760 311.4174 0009950 249.3155 110.6930 13.51009652 58569
QIANFAN-88              
1 63174U 25046R   26063.82835345  .00000188  00000+0  27329-3 0  9995
2 63174  88.9763 311.3725 0010351 258.9480 101.0507 13.50997964 58596
QIANFAN-89              
1 63175U 25046S   26063.79148561  .00000202  00000+0  29459-3 0  9992
2 63175  88.9763 311.5654 0014825 248.1148 111.8427 13.51008477 58483
QIANFAN-90              
1 63176U 25046T   26063.82032088  .00000214  00000+0  31207-3 0  9990
2 63176  88.9763 311.5348 0011783 246.0240 113.9677 13.51008385 58505
QIANFAN-91              
1 66033U 25233A   26063.77879501  .00000045  00000+0  51437-4 0  9996
2 66033  88.9928  53.7466 0001920  92.7052 267.4319 13.51004503 19084
QIANFAN-92              
1 66034U 25233B   26063.78696250  .00000028  00000+0  24947-4 0  9993
2 66034  88.9912  53.7345 0001934  86.0484 274.0888 13.51005898 19087
QIANFAN-93              
1 66035U 25233C   26063.86925788  .00000021  00000+0  14629-4 0  9993
2 66035  88.9939  53.7497 0001906  90.7738 269.3632 13.51004849 19098
QIANFAN-94              
1 66036U 25233D   26063.78268456  .00000030  00000+0  27682-4 0  9990
2 66036  88.9936  53.6654 0002038  88.3545 271.7840 13.50991858 19133
QIANFAN-95              
1 66037U 25233E   26063.79095405  .00000060  00000+0  74441-4 0  9992
2 66037  88.9934  53.2108 0002046  93.6584 266.4802 13.51015318 19388
QIANFAN-96              
1 66038U 25233F   26063.81581306  .00000037  00000+0  38654-4 0  9996
2 66038  88.9931  53.7543 0001933  94.6355 265.5016 13.51004648 19083
QIANFAN-97              
1 66039U 25233G   26063.79934026  .00000029  00000+0  26035-4 0  9996
2 66039  88.9934  53.7366 0001937  92.1500 267.9873 13.51004060 19095
QIANFAN-98              
1 66040U 25233H   26063.80751743  .00000035  00000+0  36120-4 0  9996
2 66040  88.9923  53.4780 0002462  85.6887 274.4546 13.51004489 19232
QIANFAN-99              
1 66041U 25233J   26063.81167946  .00000037  00000+0  38994-4 0  9997
2 66041  88.9934  53.7387 0002326  89.4726 270.6692 13.51004787 19099
QIANFAN-100             
1 66042U 25233K   26063.80342230  .00000060  00000+0  73986-4 0  9994
2 66042  88.9945  53.6549 0001909  91.4222 268.7147 13.51005651 19141
QIANFAN-101             
1 66043U 25233L   26063.79622163  .00000708  00000+0  28609-3 0  9999
2 66043  88.9935  52.5490 0016808 121.3830 238.9010 14.26733390 19741
QIANFAN-102             
1 66044U 25233M   26063.82385742  .00000022  00000+0  15755-4 0  9991
2 66044  88.9932  53.6495 0002091  88.8514 271.2877 13.50992381 19149
